{"type":"FeatureCollection","features":[{"type":"Feature","id":887968,"geometry":{"type":"Polygon","coordinates":[[[46.667720314664479,25.001054587668872],[46.667138019340626,25.003676476020019],[46.667077828427402,25.003947492785016],[46.667077788876703,25.003947498645562],[46.666814815860612,25.003987025028586],[46.636369369343662,25.008559843377927],[46.612710437772478,25.012096243556471],[46.610417389353422,25.012438785733956],[46.610384738692332,25.012443662817798],[46.611620462268675,25.005745894984777],[46.611363747272406,25.004152913258981],[46.611003579471706,25.003804526182346],[46.609386666902424,25.002502114268971],[46.606905273908687,25.001172067872155],[46.605475592851199,25.001584237425512],[46.60313756706779,24.997511550779173],[46.601414095245161,24.995992379263626],[46.600970077186545,24.99569222614916],[46.6006041337154,24.995493968597565],[46.599253313070328,24.99447774545445],[46.59869530814597,24.994096744835087],[46.596650076511175,24.992420216293585],[46.595333084143086,24.991326747051367],[46.60274305205018,24.979307581283511],[46.6128247345017,24.962950687550727],[46.625459030034278,24.942445611902372],[46.627603686900919,24.938964155921511],[46.645448306965143,24.90998835115214],[46.654311052501974,24.895591629209139],[46.70118236365802,24.819358946568489],[46.701229488414178,24.819383093970483],[46.716249440574579,24.82707817721964],[46.716915789450269,24.828131661315837],[46.717497070829459,24.828716921817737],[46.717926988118315,24.829141970827273],[46.718360758331784,24.829466644170111],[46.718803878940179,24.829709987786423],[46.71915656321405,24.829849261423071],[46.72059141623253,24.83063539901147],[46.720908002527963,24.830819085843533],[46.72113784828791,24.830851038756443],[46.721637272334554,24.830920465498501],[46.72192310995743,24.830213682746425],[46.721958276322646,24.830224363867593],[46.722913093389138,24.830514356205647],[46.723457361974177,24.830792670976756],[46.724122821595998,24.83157223939418],[46.72478445376219,24.832346649902831],[46.725223450746334,24.832861971360185],[46.725539614091076,24.833237557906696],[46.725852417282432,24.833615481176306],[46.726161840175465,24.833995716142923],[46.726369565342004,24.83425774064704],[46.726572441613641,24.8345229104312],[46.726769778019637,24.834788631451303],[46.726963899395393,24.835056317832205],[46.727342703529999,24.835580032709451],[46.727535967821865,24.835849582600055],[46.727724282817405,24.836122034334153],[46.728088604658787,24.836664817623475],[46.728269875568067,24.836943168938365],[46.728445905635134,24.837224306346666],[46.728495833447887,24.837305516319155],[46.728695052351995,24.837626417101966],[46.728935375743283,24.83801908800746],[46.729357392177569,24.838743489435277],[46.729782353433414,24.839507329270258],[46.729925704731066,24.83980113980914],[46.730709313564191,24.841407190125359],[46.731328537512802,24.842865467676347],[46.731678581286758,24.843782425169746],[46.73177169286474,24.844035314853496],[46.731859572536656,24.844289759335993],[46.732062490942916,24.844886083901638],[46.732134134316809,24.845098627796702],[46.732202116051297,24.845312171127706],[46.732266417580739,24.845526660846897],[46.732337246994689,24.845767948427127],[46.732637332474653,24.846797401276422],[46.733047070441273,24.84850333085453],[46.733125493154937,24.84891811511481],[46.73319668262571,24.849333984486055],[46.73329354524185,24.849944190464981],[46.733385617570072,24.850555014364303],[46.733426657884472,24.850851532398533],[46.733462788022912,24.85114858138623],[46.733493999105228,24.851446094623952],[46.733544046870989,24.851889847236283],[46.733576606403666,24.852186029299443],[46.733603850754697,24.85248265674376],[46.733625773857611,24.852779651998286],[46.733651987739655,24.853168563431893],[46.73368020896887,24.853557358541043],[46.733696767916413,24.853810246388928],[46.73370844188662,24.854063361568198],[46.733715224808002,24.85431662560315],[46.733728346974111,24.855082987669523],[46.73372469891325,24.855708629945845],[46.733720101783035,24.856037064321356],[46.733709577709838,24.856365384208043],[46.733681705583869,24.856999737580853],[46.733663020215793,24.857327598723987],[46.733637662974758,24.857655085878068],[46.733585998302658,24.858278767314008],[46.733556301806267,24.858609462097359],[46.733518867588714,24.858939501832086],[46.733480500163132,24.859251594555591],[46.733334275651046,24.860316158820861],[46.733356889136658,24.860414427841249],[46.733410958518931,24.860649387229461],[46.73345807502573,24.860872472564822],[46.733517161177417,24.861269294726796],[46.733515959366855,24.861441047421287],[46.733504598625117,24.861648784039396],[46.733458730366166,24.861819222455846],[46.733418992648126,24.861891961968187],[46.733229652451726,24.862097647518802],[46.733172381414157,24.862158353163213],[46.733076938364015,24.862166217014877],[46.732993620414966,24.862133389164484],[46.732841325499777,24.862835447720446],[46.732714203035044,24.863354828790573],[46.732564254994884,24.863921810510949],[46.732382196914884,24.864571072745388],[46.732116894941434,24.865423483596381],[46.731581159514015,24.866958686985306],[46.73102721292539,24.868346584792636],[46.730594976977486,24.869342698103171],[46.729974770651559,24.870605157467448],[46.729251996785671,24.871924118120084],[46.728537311227953,24.873124466694243],[46.727756280520467,24.87434523179477],[46.727130318355044,24.875353286148403],[46.724697993866755,24.879266279264115],[46.724696058866797,24.879269480586981],[46.724421167061529,24.87965277996906],[46.724605543517562,24.879780107577542],[46.725648302073495,24.882649542053173],[46.72575740013913,24.882807247393625],[46.725854749183974,24.882939963813921],[46.726023314926223,24.883156806276784],[46.726137420642956,24.8833000934324],[46.726225582648084,24.883405832840371],[46.726327875824516,24.88352404509769],[46.726422119551607,24.883625392041857],[46.726537498706932,24.883745237690878],[46.726644983900314,24.883860041837682],[46.72672382986633,24.883939145185987],[46.726853796012996,24.884060786386822],[46.726980157223331,24.884173641050918],[46.727097532741993,24.884269074249207],[46.727164028433741,24.884322240366561],[46.727251524895813,24.884394248852963],[46.727307785598228,24.884444360730924],[46.727391576062629,24.884520248261214],[46.727429626859625,24.884547718686029],[46.727499137994258,24.884610582523116],[46.727656186372869,24.884733905643714],[46.727902269954157,24.884922520545107],[46.728007592811657,24.885008663091533],[46.728085763401047,24.885063161605785],[46.728290418819363,24.885203104991042],[46.728417655667982,24.885287603012753],[46.728594640592604,24.885401165391702],[46.728700137515808,24.885467045305383],[46.728830832610669,24.885546952491556],[46.728921226104823,24.8856011274469],[46.72905545106385,24.885676062126297],[46.729215899674514,24.885763313805505],[46.729383765531253,24.88585643637926],[46.729552578832447,24.88594806528182],[46.729748713072418,24.886050264808645],[46.729929338363384,24.886140999739411],[46.730350893495334,24.886356864494406],[46.73064276887704,24.886490811917071],[46.730757932035338,24.88654327279232],[46.731044627214111,24.886685985703682],[46.731337810452089,24.886836744833701],[46.731693375947252,24.887015124511375],[46.731996097022204,24.887168770864168],[46.732177581693385,24.887261210172486],[46.732566065669275,24.887459991017465],[46.732859801671637,24.887609816944185],[46.733127817452647,24.88774608942337],[46.733386950091116,24.887878369244518],[46.733689147253394,24.888032904652096],[46.734069477340455,24.888226461898164],[46.735118434804072,24.888713925424305],[46.735144681439898,24.888726397379539],[46.7358132075111,24.889035848824133],[46.736265940000379,24.889235915176389],[46.737435686243614,24.889723579245345],[46.738132559907243,24.890033002951416],[46.738486045503365,24.890198808530005],[46.739437499225154,24.890664485293193],[46.74017865991069,24.89102754197587],[46.740300795838074,24.891087234087301],[46.740466806436459,24.891167815459436],[46.740702248897655,24.891283114670195],[46.740825290308081,24.89134127536191],[46.740963700447658,24.891411482116606],[46.741024945200643,24.891441028293645],[46.741165383080791,24.891507803826798],[46.741365662158707,24.891606503490511],[46.741530973075157,24.891688267291549],[46.741835899990882,24.891838198528845],[46.742044532563277,24.891941787952661],[46.742210349057601,24.892022698180803],[46.742462725926828,24.892147396713678],[46.7426629537864,24.892246182712412],[46.742758328373341,24.892292919707653],[46.742967673321736,24.892392293064798],[46.743196842379554,24.892495649886609],[46.743372537712958,24.892576270877122],[46.743579911754331,24.892658725275961],[46.743837586310136,24.892770143518053],[46.74409942054217,24.892873176647541],[46.744354757775909,24.892967112306064],[46.744547148075696,24.893035486299254],[46.744703717453461,24.893088853767981],[46.744860916014368,24.89314063823403],[46.745046332906774,24.893200312903296],[46.745213712645771,24.893252694755059],[46.745390795190914,24.893306930203781],[46.745663082183164,24.89338404918368],[46.746002582015002,24.893475298808948],[46.746211180420772,24.893527486901657],[46.746410987238292,24.893574959106132],[46.746535199546763,24.893602457537124],[46.74676520076013,24.89365050930229],[46.746938371665514,24.893683718864118],[46.747110965482015,24.89371938260313],[46.747332471311651,24.893760894314994],[46.747554785246102,24.893798699057886],[46.747690443449926,24.893820010627245],[46.748001111718757,24.893865501102269],[46.748254379405033,24.893897278516722],[46.748771893199034,24.893953233173672],[46.749114664464273,24.893981584484738],[46.74952681029098,24.894006054447285],[46.749792012227509,24.894018119118478],[46.750037804391809,24.894023579159779],[46.750490168045381,24.894027876303948],[46.75090314389508,24.894020022481634],[46.751207898879287,24.894010909967687],[46.751580961614657,24.893989678531074],[46.751904499310676,24.89396554368124],[46.752296034441152,24.893929549563047],[46.75310410511586,24.893822663759511],[46.753133237034696,24.89381832631441],[46.75317197910104,24.893812016060892],[46.753220382704441,24.893804007756039],[46.753268761893217,24.893795883255368],[46.753326830397512,24.893786205722979],[46.753355852352719,24.893781302539384],[46.753394531729832,24.893774690511936],[46.753442851376946,24.893766276841568],[46.753481447937617,24.893759268512586],[46.753539374158152,24.893748910921559],[46.753577969665706,24.893741898969019],[46.753597260018019,24.893738359670724],[46.753606900440467,24.893736568859634],[46.753612206813727,24.893735579260063],[46.753683989019507,24.893722091982447],[46.753703260300831,24.893718464415844],[46.753722525336727,24.893714815251904],[46.753732156261279,24.893712983013536],[46.753741786119292,24.89371114537002],[46.753751414910788,24.893709302321344],[46.753770668291786,24.893705599117471],[46.753789917419404,24.893701875195688],[46.753809152901937,24.893698096358193],[46.753828359914536,24.893694194162908],[46.753837949776525,24.893692188151103],[46.753847537569534,24.89369017584308],[46.75385712429599,24.893688158129919],[46.753876293559557,24.893684106499766],[46.753895457579979,24.893680034163381],[46.75391461634451,24.893675940218031],[46.7539338088053,24.893671989426792],[46.753943415518663,24.893670055437983],[46.75396262474333,24.893666170353836],[46.753972227267383,24.893664220161202],[46.753991429115842,24.893660303560512],[46.754001028440243,24.893658337152431],[46.754010619438716,24.893656341950539],[46.75402979087459,24.893652304721069],[46.754048957054529,24.89364824588267],[46.754058538544655,24.893646208355729],[46.754077687994773,24.893642086511132],[46.754087259038563,24.893640010282788],[46.754096829028555,24.893637929552032],[46.754115966977075,24.893633764501185],[46.754125535887013,24.893631677461372],[46.754144667550904,24.893627488103956],[46.75415423130729,24.893625386677396],[46.754173356661013,24.893621171208],[46.75418291827112,24.893619058067866],[46.754192477824965,24.893616939534223],[46.754211583376936,24.893612653870807],[46.754230678392815,24.893608323186541],[46.754249768241969,24.893603977212251],[46.754268852924397,24.893599615947917],[46.754287934419416,24.893595239370274],[46.754307010747702,24.893590847502612],[46.75435330716212,24.893580412386374],[46.754364301189007,24.893577888748695],[46.754383377447525,24.893573492358069],[46.75441198301835,24.893566869431652],[46.754478729577677,24.893551409593233],[46.754536014341326,24.893538402087827],[46.754574168579452,24.893529592989726],[46.75508408445446,24.893399691807193],[46.755414685677323,24.893300373867625],[46.755737133479734,24.893196673054515],[46.755987065079871,24.893103755547774],[46.756251929811242,24.893009299445016],[46.756969366861973,24.892744616861197],[46.756978247476077,24.892740764559157],[46.760013410664961,24.892718062406534],[46.760674854866487,24.892728798419999],[46.761336382716983,24.892733713475408],[46.761997930759527,24.892732806519486],[46.762659438506212,24.892726076464939],[46.763320843541287,24.892713525859772],[46.763982085402851,24.892695155424239],[46.764643101649938,24.892670965903093],[46.765303830857135,24.892640959835855],[46.765964211612207,24.892605140665765],[46.766281780482899,24.892592266060564],[46.766598936900522,24.892572673997982],[46.766915508743054,24.892546375549784],[46.767231326896642,24.892513384462106],[46.76754622032022,24.892473718116662],[46.767860020017153,24.892427398386538],[46.768172556053592,24.892374450768621],[46.76848366149143,24.892314902531385],[46.768793168481295,24.892248786372377],[46.769100910203363,24.892176137686793],[46.76940672088044,24.892096995470077],[46.769710434801127,24.892011403232281],[46.77001189122975,24.891919406231388],[46.770310924548482,24.891821054298536],[46.770607376120381,24.891716400794586],[46.770901085356947,24.891605500910263],[46.77119189471788,24.891488415218173],[46.771479646703739,24.891365206999943],[46.771764186824797,24.891235942210926],[46.772045361621963,24.891100689503613],[46.772323020697613,24.890959523814853],[46.772597013643669,24.890812519179587],[46.773094365972575,24.89045182959245],[46.773596326142965,24.890096493503972],[46.774102825583959,24.889746559533179],[46.774613794724999,24.889402075408519],[46.775129162031917,24.88906308978509],[46.777911230351286,24.887280129083624],[46.778090028314203,24.887179806506719],[46.778264604660613,24.887073475982518],[46.778434715036077,24.886961284893069],[46.778600124137824,24.886843390444486],[46.77876060268138,24.886719955188529],[46.778915926475598,24.886591151547933],[46.779065881306117,24.886457157243765],[46.779210257062395,24.886318159879554],[46.779348855563896,24.886174350528048],[46.77948148175728,24.886025931058622],[46.779607953495791,24.885873105895207],[46.779728093725986,24.885716089331879],[46.779841736308761,24.885555097337971],[46.779948724130577,24.885390353900149],[46.780048907098383,24.885222089240759],[46.780515581832233,24.884401901913982],[46.781014047253265,24.883084888569613],[46.781266686807321,24.88278674208874],[46.781514183775222,24.882485027199586],[46.781756476909209,24.882179819593635],[46.781993507893375,24.881871192218615],[46.782225217463115,24.881559220741821],[46.782451550339893,24.881243982588408],[46.782794710106828,24.88074462289989],[46.782932537810645,24.8805362487137],[46.783068044860791,24.88032661198427],[46.783092706261549,24.880287916871517],[46.783296389550635,24.879962231492911],[46.783494213322541,24.879633555268271],[46.782518163090856,24.877275959955131],[46.788654646109599,24.867538407006958],[46.790290194728755,24.86494278540961],[46.804715895690421,24.872307420199068],[46.792355430433986,24.892441746550816],[46.792355416904932,24.892441769284229],[46.79012847919374,24.8960685345114],[46.771284053202962,24.926749073626979],[46.768885123979942,24.930653570241727],[46.764678811005012,24.937499113252318],[46.764490014553722,24.93781246758174],[46.761102540108247,24.94343454039992],[46.75771078752868,24.94906315602832],[46.757696207472094,24.94908636495423],[46.751589468143699,24.958806163354382],[46.746066499929711,24.967468049970918],[46.745285341476666,24.968391995875965],[46.738198914027151,24.975067940392901],[46.731835966342928,24.978065987490595],[46.729088496739756,24.982048376938277],[46.729051524236894,24.982101966087029],[46.727739115069895,24.981948068065574],[46.726604898714648,24.981815056426036],[46.724612775270288,24.981715617435693],[46.722579122464992,24.981614078222908],[46.719795273291439,24.98332977016647],[46.716693316290694,24.985241398398475],[46.712215585728821,24.990261688519467],[46.710296976463319,24.992248542327946],[46.709418264858932,24.99314846899594],[46.706264633183125,24.996815648416902],[46.70566487272005,24.997515278499581],[46.70188105544937,25.000701666207391],[46.701804102471847,25.0007664668823],[46.697910870653914,24.999579654838143],[46.697177867272238,24.999356192307474],[46.690932287891513,24.999319836672161],[46.680223493572562,24.998771327378989],[46.67984503028228,24.998751927783051],[46.678349228529662,24.998073600344831],[46.678241441650783,24.998024719706663],[46.675505174062629,24.998297849588727],[46.674896052932787,24.998358644493962],[46.672844475856941,24.995169944158619],[46.672646889016093,24.99486283076266],[46.670508267411165,24.998369771443222],[46.667818066013439,24.999765177539711],[46.66768036890165,24.99985630267221],[46.667623898901958,25.000042069467039],[46.667614482352107,25.000205351948175],[46.667720314664479,25.001054587668872]]]},"properties":{"OBJECTID":7968,"NEIGHBORHCODE":"156","NEIGHBORHANAME":"مطار الملك خالد الدولي","NEIGHBORHENAME":"KING KHALID INT.AIRPORT","MUNICIPALITYCODE":"50785","DISTRICTNO":"44","HASRIYADH":0,"OBPID":887968,"MUNICIPALITYANAME":"قطاع شمال مدينة الرياض","MUNICIPALITYENAME":"North Riyadh sector","SHAPE.AREA":207974671.154544,"SHAPE.LEN":72804.817586049103}}]}